ONEWEB-0473             
1 51653U 22012AH  26203.07330054 -.00000394  00000+0 -11640-2 0  9993
2 51653  87.8812  29.3227 0001830  90.9220 269.2117 13.10372105213877
ONEWEB-0474             
1 51654U 22012AJ  26203.06481942  .00000049  00000+0  10268-3 0  9997
2 51654  87.8818  29.3119 0001658  98.1999 261.9316 13.10370173213867
ONEWEB-0475             
1 51655U 22012AK  26203.00111037  .00000001  00000+0 -30866-4 0  9993
2 51655  87.9156 358.9477 0001615 115.6346 244.4953 13.17648671218277
ONEWEB-0490             
1 54113U 22138A   26202.70703888 -.00000030  00000+0 -10626-3 0  9995
2 54113  87.9192 298.0954 0002115 104.1938 255.9430 13.19724550181380
ONEWEB-0492             
1 54114U 22138B   26203.18720705 -.00000002  00000+0 -36589-4 0  9992
2 54114  87.9182 297.9991 0002256 101.5769 258.5617 13.19723825181456
ONEWEB-0495             
1 54115U 22138C   26202.71019485 -.00000013  00000+0 -64485-4 0  9995
2 54115  87.9182 298.0967 0002380 114.4590 245.6792 13.19726532181375
ONEWEB-0497             
1 54116U 22138D   26202.49537539  .00000104  00000+0  22801-3 0  9990
2 54116  87.9190 298.1336 0002066 102.7928 257.3436 13.19724538181337
ONEWEB-0499             
1 54117U 22138E   26202.70625260 -.00000040  00000+0 -13337-3 0  9999
2 54117  87.9185 298.0982 0002046 107.9031 252.2325 13.19724363181379
ONEWEB-0500             
1 54118U 22138F   26202.70862328 -.00000010  00000+0 -57004-4 0  9995
2 54118  87.9191 298.0944 0002057  97.8426 262.2940 13.19726185181381
ONEWEB-0501             
1 54119U 22138G   26203.19353789  .00000013  00000+0 -97434-6 0  9991
2 54119  87.9190 297.9983 0002226 110.5982 249.5390 13.19726601181425
ONEWEB-0502             
1 54120U 22138H   26202.72440390 -.00000039  00000+0 -13053-3 0  9997
2 54120  87.9194 298.0806 0002000 107.9187 252.2164 13.19723973181388
ONEWEB-0503             
1 54121U 22138J   26202.71335245 -.00000004  00000+0 -42271-4 0  9996
2 54121  87.9194 298.0893 0001730 100.2745 259.8583 13.19726809181378
ONEWEB-0504             
1 54122U 22138K   26202.32163308  .00000051  00000+0  94547-4 0  9996
2 54122  87.9190 298.1714 0001971 107.8281 252.3067 13.19726749181337
ONEWEB-0505             
1 54123U 22138L   26202.54592093 -.00000006  00000+0 -46236-4 0  9992
2 54123  87.9189 298.1272 0002128 112.8763 247.2594 13.19723662181341
ONEWEB-0506             
1 54124U 22138M   26202.29321978  .00000078  00000+0  16259-3 0  9995
2 54124  87.9192 298.1756 0002134 109.2950 250.8414 13.19725869181306
ONEWEB-0507             
1 54125U 22138N   26202.69281444  .00000030  00000+0  42361-4 0  9995
2 54125  87.9182 298.1048 0002127 105.1918 254.9451 13.19727272181408
ONEWEB-0508             
1 54126U 22138P   26202.68966594  .00000017  00000+0  90692-5 0  9997
2 54126  87.9184 298.1052 0002341 108.7690 251.3697 13.19726413181386
ONEWEB-0509             
1 54127U 22138Q   26203.19511085 -.00000001  00000+0 -34356-4 0  9995
2 54127  87.9193 297.9976 0002090 104.7978 255.3387 13.19725012181424
ONEWEB-0510             
1 54128U 22138R   26203.13164936  .00000068  00000+0  13633-3 0  9994
2 54128  87.9177 267.4725 0001862  85.6858 274.4488 13.20771965183898
ONEWEB-0511             
1 54129U 22138S   26203.19194830 -.00000028  00000+0 -10188-3 0  9997
2 54129  87.9189 297.9995 0001807 104.9528 255.1805 13.19724112181456
ONEWEB-0512             
1 54130U 22138T   26203.18404452  .00000004  00000+0 -22603-4 0  9991
2 54130  87.9182 298.0038 0002011 110.4057 249.7292 13.19724296181427
ONEWEB-0513             
1 54131U 22138U   26203.17526570  .00000010  00000+0 -75036-5 0  9993
2 54131  87.9189 297.9454 0001882 126.5299 233.6007 13.20269294181336
ONEWEB-0514             
1 54132U 22138V   26203.19984678  .00000020  00000+0  17859-4 0  9991
2 54132  87.9188 297.9972 0001962  96.3996 263.7360 13.19724385181441
ONEWEB-0515             
1 54133U 22138W   26203.19394657  .00000077  00000+0  15653-3 0  9995
2 54133  87.9177 267.4554 0002623  81.1431 278.9999 13.20772461183920
ONEWEB-0516             
1 54134U 22138X   26202.71967355 -.00000031  00000+0 -11082-3 0  9998
2 54134  87.9185 298.0965 0002191 101.3163 258.8216 13.19724133181381
ONEWEB-0517             
1 54135U 22138Y   26202.69913850  .00000019  00000+0  13939-4 0  9995
2 54135  87.9189 298.0954 0001704 100.5993 259.5331 13.19726361181386
ONEWEB-0518             
1 54136U 22138Z   26203.17299994  .00000013  00000+0  40664-7 0  9998
2 54136  87.9182 298.0081 0002223  99.1120 261.0265 13.19724312181448
ONEWEB-0519             
1 54137U 22138AA  26203.19826450  .00000069  00000+0  14026-3 0  9994
2 54137  87.9190 297.9972 0001803  99.6778 260.4558 13.19724129181457
ONEWEB-0520             
1 54138U 22138AB  26202.70230149  .00000024  00000+0  28211-4 0  9998
2 54138  87.9192 298.0966 0002122 105.6137 254.5230 13.19724578181377
ONEWEB-0521             
1 54139U 22138AC  26203.19035827 -.00000023  00000+0 -89360-4 0  9992
2 54139  87.9194 297.9883 0001807  98.8287 261.3050 13.19723994181382
