OBJECT_NAME,OBJECT_ID,EPOCH,MEAN_MOTION,ECCENTRICITY,INCLINATION,RA_OF_ASC_NODE,ARG_OF_PERICENTER,MEAN_ANOMALY,EPHEMERIS_TYPE,CLASSIFICATION_TYPE,NORAD_CAT_ID,ELEMENT_SET_NO,REV_AT_EPOCH,BSTAR,MEAN_MOTION_DOT,MEAN_MOTION_DDOT
ONEWEB-0473,2022-012AH,2026-07-22T01:45:33.166656,13.10372105,.000183,87.8812,29.3227,90.9220,269.2117,0,U,51653,999,21387,-.11639986E-2,-.394E-5,0
ONEWEB-0474,2022-012AJ,2026-07-22T01:33:20.397888,13.10370173,.00016585,87.8818,29.3119,98.1999,261.9316,0,U,51654,999,21386,.10268138E-3,.49E-6,0
ONEWEB-0475,2022-012AK,2026-07-22T00:01:35.935968,13.17648671,.00016158,87.9156,358.9477,115.6346,244.4953,0,U,51655,999,21827,-.30865795E-4,.1E-7,0
ONEWEB-0490,2022-138A,2026-07-21T16:58:08.159232,13.19724550,.0002115,87.9192,298.0954,104.1938,255.9430,0,U,54113,999,18138,-.10625914E-3,-.3E-6,0
ONEWEB-0492,2022-138B,2026-07-22T04:29:34.689120,13.19723825,.00022569,87.9182,297.9991,101.5769,258.5617,0,U,54114,999,18145,-.36588957E-4,-.2E-7,0
ONEWEB-0495,2022-138C,2026-07-21T17:02:40.835040,13.19726532,.00023805,87.9182,298.0967,114.4590,245.6792,0,U,54115,999,18137,-.64485434E-4,-.13E-6,0
ONEWEB-0497,2022-138D,2026-07-21T11:53:20.433696,13.19724538,.00020666,87.9190,298.1336,102.7928,257.3436,0,U,54116,999,18133,.22801119E-3,.104E-5,0
ONEWEB-0499,2022-138E,2026-07-21T16:57:00.224640,13.19724363,.00020468,87.9185,298.0982,107.9031,252.2325,0,U,54117,999,18137,-.13337372E-3,-.4E-6,0
ONEWEB-0500,2022-138F,2026-07-21T17:00:25.051392,13.19726185,.00020579,87.9191,298.0944,97.8426,262.2940,0,U,54118,999,18138,-.57004057E-4,-.1E-6,0
ONEWEB-0501,2022-138G,2026-07-22T04:38:41.673696,13.19726601,.00022265,87.9190,297.9983,110.5982,249.5390,0,U,54119,999,18142,-.974341E-6,.13E-6,0
ONEWEB-0502,2022-138H,2026-07-21T17:23:08.496960,13.19723973,.00020004,87.9194,298.0806,107.9187,252.2164,0,U,54120,999,18138,-.13053465E-3,-.39E-6,0
ONEWEB-0503,2022-138J,2026-07-21T17:07:13.651680,13.19726809,.00017309,87.9194,298.0893,100.2745,259.8583,0,U,54121,999,18137,-.42270618E-4,-.4E-7,0
ONEWEB-0504,2022-138K,2026-07-21T07:43:09.098112,13.19726749,.00019715,87.9190,298.1714,107.8281,252.3067,0,U,54122,999,18133,.94547237E-4,.51E-6,0
ONEWEB-0505,2022-138L,2026-07-21T13:06:07.568352,13.19723662,.00021287,87.9189,298.1272,112.8763,247.2594,0,U,54123,999,18134,-.46236229E-4,-.6E-7,0
ONEWEB-0506,2022-138M,2026-07-21T07:02:14.188992,13.19725869,.0002134,87.9192,298.1756,109.2950,250.8414,0,U,54124,999,18130,.16258657E-3,.78E-6,0
ONEWEB-0507,2022-138N,2026-07-21T16:37:39.167616,13.19727272,.00021279,87.9182,298.1048,105.1918,254.9451,0,U,54125,999,18140,.42361222E-4,.3E-6,0
ONEWEB-0508,2022-138P,2026-07-21T16:33:07.137216,13.19726413,.0002341,87.9184,298.1052,108.7690,251.3697,0,U,54126,999,18138,.9069152E-5,.17E-6,0
ONEWEB-0509,2022-138Q,2026-07-22T04:40:57.577440,13.19725012,.00020907,87.9193,297.9976,104.7978,255.3387,0,U,54127,999,18142,-.34355799E-4,-.1E-7,0
ONEWEB-0510,2022-138R,2026-07-22T03:09:34.504704,13.20771965,.00018626,87.9177,267.4725,85.6858,274.4488,0,U,54128,999,18389,.13632534E-3,.68E-6,0
ONEWEB-0511,2022-138S,2026-07-22T04:36:24.333120,13.19724112,.00018078,87.9189,297.9995,104.9528,255.1805,0,U,54129,999,18145,-.10187794E-3,-.28E-6,0
ONEWEB-0512,2022-138T,2026-07-22T04:25:01.446528,13.19724296,.00020118,87.9182,298.0038,110.4057,249.7292,0,U,54130,999,18142,-.22602701E-4,.4E-7,0
ONEWEB-0513,2022-138U,2026-07-22T04:12:22.956480,13.20269294,.00018822,87.9189,297.9454,126.5299,233.6007,0,U,54131,999,18133,-.7503592E-5,.1E-6,0
ONEWEB-0514,2022-138V,2026-07-22T04:47:46.761792,13.19724385,.00019621,87.9188,297.9972,96.3996,263.7360,0,U,54132,999,18144,.1785936E-4,.2E-6,0
ONEWEB-0515,2022-138W,2026-07-22T04:39:16.983648,13.20772461,.00026237,87.9177,267.4554,81.1431,278.9999,0,U,54133,999,18392,.15652781E-3,.77E-6,0
ONEWEB-0516,2022-138X,2026-07-21T17:16:19.794720,13.19724133,.00021911,87.9185,298.0965,101.3163,258.8216,0,U,54134,999,18138,-.11081572E-3,-.31E-6,0
ONEWEB-0517,2022-138Y,2026-07-21T16:46:45.566400,13.19726361,.00017048,87.9189,298.0954,100.5993,259.5331,0,U,54135,999,18138,.13938561E-4,.19E-6,0
ONEWEB-0518,2022-138Z,2026-07-22T04:09:07.194816,13.19724312,.00022239,87.9182,298.0081,99.1120,261.0265,0,U,54136,999,18144,.40664E-7,.13E-6,0
ONEWEB-0519,2022-138AA,2026-07-22T04:45:30.052800,13.19724129,.00018037,87.9190,297.9972,99.6778,260.4558,0,U,54137,999,18145,.1402637E-3,.69E-6,0
ONEWEB-0520,2022-138AB,2026-07-21T16:51:18.848736,13.19724578,.00021222,87.9192,298.0966,105.6137,254.5230,0,U,54138,999,18137,.28211047E-4,.24E-6,0
ONEWEB-0521,2022-138AC,2026-07-22T04:34:06.954528,13.19723994,.00018079,87.9194,297.9883,98.8287,261.3050,0,U,54139,999,18138,-.89359508E-4,-.23E-6,0
